"Web Site","Zip","State","City","Company"
"www.accountingforcannabis.com","","","","Accounting For Cannabis"
"actresourcespllc.com","98003","WA","Federal Way","ACT Resources, PLLC."
"www.bridgewestcpas.com","80206","CO","Denver","Bridge West"
"","55101","MN","Saint Paul","Bridge West"
"","55101","MN","Saint Paul","Bridge West"
"","90401","CA","Santa Monica","C4G"
"","","","","Canna"
"cannaTech.solutions","","","","Canna Tech Solutions, LLC"
"thecannacpas.com","","","","CannaCPAs (The)"
"citrincooperman.com","10017","NY","New York","Citrin Cooperman, Accountants & Advisors"
"WWW.CPAMD.COM","60010","","","CPAMD, Ltd."
"","","","","Ganja Accounting Services, LLC"
"www.greenbeancfo.com","","","","Green Bean"
"","98034","WA","Kirkland","Green Cross Bookkeeping"
"www.greenharvestaccounting.com","49319","MI","Cedar Springs","Green Harvest Accounting"
"","48084","MI","Troy","Gummaco, PC"
"","02021","MA","Canton","Kurzman, Demosey & Kowalker"
"","","","","LC Solutions Michigan, PLLC"
"https://meadowsaccountingservices.com","48324","MI","","Meadows Accounting Services"
"nowcfo.com","98104","WA","Seattle","Now CFO"
"www.PanaceaPayroll.com","19464","PA","Pottstown","Panacea Payroll"
"www.PanaceaPayroll.com","19464","PA","Pottstown","Panacea Payroll"
"www.payQwick.com","49341","MI","Rockford","Pay Qwick"
"www.payQwick.com","49341","MI","Rockford","Pay Qwick"
"www.rwgroupllc.com","19348","PA","Kennett Square","RW Group, LLC"
"www.zsprofitsolutions.com","91364","CA","Woodland Hills","ZS Profit Solutions, Inc."
