"Web Site","Zip","State","City","Company"
"7pointlaw.com","","","","7 Point Law"
"","90071","CA","Los Angelels","Aldi Law Group"
"","","","","Cannabis Compliance"
"www.cannabiscounsel.com","48207","MI","Detroit","Cannabis Counsel"
"www.cannabiscounsel.com","48207","MI","Detroit","Cannabis Counsel"
"www.cannabiscounsel.com","48207","MI","Detroit","Cannabis Counsel"
"cannabislegalgroup.com","48067","MI","Royal Oak","Cannabis Legal Group"
"cannabislegalgroup.com","48067","MI","Royal Oak","Cannabis Legal Group"
"","80901","CO","Colorado Springs","Charles T. Houghton, PC"
"","48084","MI","Troy","Dickinson Wright, PLLC"
"dillanddill.com","80203","CO","Denver","Dill and Dill Carr Stonbraker & Hutchings P.C."
"FrantzWard.com","44114","OH","Cleveland","Frantz Ward LLP"
"www.gleamlaw.com","98112","WA","Seattle","GleamLaw"
"www.gleamlaw.com","98112","WA","Seattle","GleamLaw"
"","92101","CA","San Diego","GreenspoonMarder"
"www.hallinan-law.com","94102","CA","San Francisco","Hallinan and Hallinan, PC"
"","02138","MA","Cambridge","Harvard University"
"www.jacksonkelly.com","40588-9945","KY","Lexington","Jackson Kelly, PLLC"
"www.canbizlaw.com","11788","NY","Hauppauge","Kaufman & Associates, LLC"
"www.komornlaw.com","48334","MI","Farmington Hills","Komorn Law, PLLC"
"","02026","MA","Dedham","Law Office of Anthony E.W. Morgan"
"www.matthewcummingslaw.com","02021","MA","Canton","Law Office of Matthew M. Cummings"
"JasonRanalloLaw.com","02021","MA","Canton","Law Offices of Jason M. Ranallo, PC"
"www.mgmiller.legal","10004","NY","New York","MG Miller Intellectual Property Law LLC"
"www.michaelcindrich.com","92101","CA","San Diego","Michael Cindrich Law Offices"
"","","","","Michigan Marijuana Licenses"
"","48837","MI","Grand Ledge","Newburg Law, PLLC"
"www.norml.org","20005","DC","Washington DC","Norml"
"www.scofflawllc.com","","","","Scofflaw LLC"
"www.scottrobertslaw.com","48201","Michigan","Detroit","Scott F. Roberts Law, PLC"
"www.scottrobertslaw.com","48201","Michigan","Detroit","Scott F. Roberts Law, PLC"
"www.scottrobertslaw.com","48201","Michigan","Detroit","Scott F. Roberts Law, PLC"
"www.shylerlaw.com","48317","MI","Shelby Township","Shyler Engel"
"www.solaceholdings.com","","NV","","Solace Holdings"
"","","MI","","Thurin Law Group PLLC"
"","70130","LA","New Orleans","Toledano Entertainment and Arts law"
"","48152","Michigan","Livonia","Wilson Elser Moskowitz Edelman & Dicker, LLP"
"","48009","MI","Birmingham","Yaldo law"
"www.zuberlaw.com","10119","NY","New York","Zuber Lawler & Del Duca LLP"
"www.zuberlaw.com","90071","CA","Los Angeles","Zuber Lawler & Del Duca LLP"
