"Web Site","Zip","State","City","Company"
"cannabizcom.de","","","",""
"","","","",""
"3ccannabis.com","80211","CO","Denver","3C Cannabis Consulting"
"4blooms.guru","","","","4 Blooms"
"americancannabisconsulting.com","","AR","","American Cannabis Consulting"
"www.brassringconsult.com","90013","CA","Los Angeles","Brass Ring Consulting Group"
"www.califiagolf.com","","","","Califia Gold"
"","","","","Cannabis Business Consulting"
"www.cannabisseminarbrcinc.com","","","","Cannabis Consultant"
"","","","","Cannabis Consulting Company"
"","48076","","","Cannabis Practice Group"
"","","MA","","Consigliere Consulting"
"www.ferndalecommunitygardens.com","48093","MI","Ferndale","Ferndale Community Gardens"
"www.fyreconsulting.com","","CO","Boulder","Fyre Cannabis Consulting"
"www.fryeconsulting.com","","CO","","Fyre Cannabis Consulting"
"www.growgeneration.com","48152","MI","Livonia","Grow Generation Management Group"
"","60187","","","Halcyon Consulting LLC"
"www.H2HConsultants.com","07934-0542","NJ","Gladstone","Head to Head Consultants"
"www.icecybersecurity.com","","CA","San Diego","Ice Cybersecurity"
"","","CO","","ICS Consulting"
"MJFreeway.com","","","","MJ Freeway"
"powerplantstrategies.com","","","","Powerplant"
"","48315","MI","Utica","Rozbud"
"www.SpecTestServicesLLC.com","","CA","Cypress","Spec Test Services LLC"
"www.thirdpowerpromo.com","48104","MI","Ann Arbor","Third Power Promotions"
"www.ul.com","60062","IL","Northbrook","UL, LLC"
"","","","","Willian J. Britt"
