"Web Site","Zip","State","City","Company"
"www.ae-works.com","15212","PA","Pittsburgh","AE Works"
"","48108","MI","Ann Arbor","Ansys, Inc."
"www.bcbsm.com","48226","MI","Detroit","BCBS"
"citearmored.com","38634","MS","Holly Springs","Cite Armored"
"www.crimepreventionsecurity.com","48198","MI","Ypsilanti","Crime Prevention Security"
"www.crimepreventionsecurity.com","48198","MI","Ypsilanti","Crime Prevention Security"
"www.cunninghamglass.net","48150","MI","livonia","Cunningham Glass and Door"
"www.geektek.com","","","","Geek Tek"
"www.teachoutsecurity.com","48532","MI","Flint","Great Northern Sentry Co."
"www.green.watch","98028","WA","Kenmore","Greenwatch"
"www.green.watch","98028","WA","Kenmore","Greenwatch"
"","48075","MI","Southfield","Guardian Alarm"
"","48075","MI","Southfield","Guardian Alarm"
"","48075","MI","Southfield","Guardian Alarm"
"www.ino-tek.com","","","","Ino-Tek"
"www.ino-tek.com","","","","Ino-Tek"
"","49503","","","Premier Secure"
"www.riverviewservice.org","49504","Michigan","Grand Rapids","Riverview Service, Inc."
"securatech.com","48334","MI","Farmington Hills","Securatech"
"www.securatech.com","48334","MI","Farnington Hills","Securatech"
"","1028","MA","East Longmeadow","Secure Energy Solutions"
"www.guardsyou.com","","","","Security & Protective Services"
"SpecializedSecurityGroup.com","","MI","Detroit","Specialized Security Group"
"www.teachoutsecurity.com","48532","MI","Flint","Teachout Security Solutions"
"www.towersecuritygroup.com","","","","Tower Security Group"
"www.gemsyswebsafe.com","72204","AR","Little Rock","Web Safe"
