"Web Site","Zip","State","City","Company"
"","","","",""
"www.bloomincannabis.com","","","","Bloomincannabis.com"
"www.cannaregs.com","80206","CO","Denver","Canna Regs"
"www.cannabisfn.com","","","","Cannabis Financial Network"
"Cannabistech.com","","ID","","CannabisTech.com"
"cannabiz.media","","","","Cannabiz Media"
"","","","","Cannabiz Media"
"www.cannacon.org","98028","WA","Kenmore","CannaCon"
"DopeMagazine.com","98109","WA","Seattle","Dope Magazine"
"dopemagazine.com","98109","WA","Seattle","Dope magazine"
"","","","chicago","EXPO"
"www.ghmedia.us","","","","Green Health Magazine"
"www.humannaturepr.com","","","","Human Nature"
"meridianmedia.co","","","","Meridian Media"
"www.micbd.com","","","","MICBD"
"www.mojodigitalalliance.com","","","","Mojo Digital Alliance"
"ninjaadvertising.com","11206","NY","Brooklyn","Ninja Ticketing"
"","","","","Ohio Cannabis.com"
"www.prohbtd.com","","","","Prohbtd Media"
"reliablebud.com","","","","Reliable Bud"
"www.sensimag.com","","MA","Boston","Sensi Magazine"
"www.sensimag.com","","DC","Washington","Sensi Magazine"
"","","MA","Boston","Sensi Magazine"
"www.tnmnews.com","","","","TNM News"
"","","","","topshelf.com"
"www.vdigitalservices.com","80203","CO","denver","Vdigitalservices.com"
"www.webimax.com","","NJ 08103","Camden","Webimax"
"","","","","WEMF Radio"
